MALLIGYONG-1            
1 58400U 23179A   24269.53802302  .00009525  00000+0  43364-3 0  9998
2 58400  97.3864 154.6548 0010457  83.9575 276.2852 15.20854812 46988
